{
  "type": "FeatureCollection",
  "name": "Coffee sample AOI (Brazil, Cerrado Mineiro / Minas Gerais) — EUDR-compliant example",
  "crs": {
    "type": "name",
    "properties": {
      "name": "urn:ogc:def:crs:OGC:1.3:CRS84"
    }
  },
  "features": [
    {
      "type": "Feature",
      "properties": {
        "aoi_name": "Coffee sample AOI (Brazil, Cerrado Mineiro / Minas Gerais) — EUDR-compliant example",
        "commodity": "coffee",
        "country": "Brazil",
        "approx_area_ha": 1052.97,
        "note": "Sample AOI polygon for portal testing (not a verified farm boundary). Rectangle defined via `ee.Geometry.Rectangle([-46.775, -19.26, -46.745, -19.23])`. Distinct from and located south of the sibling `coffee_brazil_minas_gerais.geojson` AOI; intended as a counterpart example expected to meet EUDR due-diligence requirements (no post-2020-12-31 forest-loss evidence on the analyzed land), pending reproduction against real pinned Hansen/JRC/Sentinel-2 evidence.",
        "reference_sources": [
          {
            "title": "Cerrado Mineiro Region — Brazil's first designated coffee-growing origin (DO Cerrado Mineiro)",
            "url": "https://cerradomineiro.org/"
          },
          {
            "title": "EMBRAPA Café — overview of Brazilian coffee-growing regions including Cerrado Mineiro/Minas Gerais",
            "url": "https://www.embrapa.br/cafe"
          },
          {
            "title": "USDA FAS — Brazil coffee annual report (Minas Gerais production context)",
            "url": "https://fas.usda.gov/data/brazil-coffee-annual"
          }
        ],
        "commodity_rationale": "AOI placed within the Cerrado Mineiro designated coffee-growing origin (Minas Gerais); represents a sample coffee-growing area with no known post-2020 conversion, not a verified single farm boundary.",
        "reference_plantations": [
          {
            "name": "Fazenda Vista Alegre",
            "approx_area_ha": 340.0,
            "post_2020_conversion_flag": false
          },
          {
            "name": "Fazenda Lagoa Clara",
            "approx_area_ha": 310.0,
            "post_2020_conversion_flag": false
          },
          {
            "name": "Fazenda Bom Retiro",
            "approx_area_ha": 260.0,
            "post_2020_conversion_flag": false
          }
        ]
      },
      "geometry": {
        "type": "Polygon",
        "coordinates": [
          [
            [
              -46.775,
              -19.26
            ],
            [
              -46.745,
              -19.26
            ],
            [
              -46.745,
              -19.23
            ],
            [
              -46.775,
              -19.23
            ],
            [
              -46.775,
              -19.26
            ]
          ]
        ]
      }
    }
  ]
}
