{"features":[{"geometry":{"coordinates":[[[-2.0042752,6.6764468],[-2.0042752,6.6762246],[-2.0039833,6.6762246],[-2.0039833,6.6764468],[-2.0042752,6.6764468]]],"type":"Polygon"},"properties":{},"type":"Feature"},{"geometry":{"coordinates":[[[-2.0322922,6.5635847],[-2.0322922,6.5631404],[-2.0320003,6.5631404],[-2.0320003,6.5635847],[-2.0322922,6.5635847]]],"type":"Polygon"},"properties":{},"type":"Feature"},{"geometry":{"coordinates":[[[-2.0392964,6.6009064],[-2.0392964,6.6006842],[-2.0390046,6.6006842],[-2.0390046,6.6009064],[-2.0392964,6.6009064]]],"type":"Polygon"},"properties":{},"type":"Feature"},{"geometry":{"coordinates":[[[-2.0661461,6.6060161],[-2.0661461,6.6057939],[-2.0658542,6.6057939],[-2.0658542,6.6060161],[-2.0661461,6.6060161]]],"type":"Polygon"},"properties":{},"type":"Feature"},{"geometry":{"coordinates":[[[-2.0687727,6.5522554],[-2.0687727,6.5520332],[-2.0684808,6.5520332],[-2.0684808,6.5522554],[-2.0687727,6.5522554]]],"type":"Polygon"},"properties":{},"type":"Feature"},{"geometry":{"coordinates":[[[-2.1,6.7],[-2.1,6.550034],[-1.9499922,6.550034],[-1.9499922,6.7],[-2.000773,6.7],[-2.000773,6.6997778],[-2.0004812,6.6997778],[-2.0004812,6.6995556],[-2.0001893,6.6995556],[-2.0001893,6.6993334],[-2.0004812,6.6993334],[-2.0004812,6.698889],[-2.000773,6.698889],[-2.000773,6.6993334],[-2.0010649,6.6993334],[-2.0010649,6.6995556],[-2.0013567,6.6995556],[-2.0013567,6.6997778],[-2.0016486,6.6997778],[-2.0016486,6.698889],[-2.0019404,6.698889],[-2.0019404,6.6993334],[-2.0022323,6.6993334],[-2.0022323,6.6995556],[-2.0031078,6.6995556],[-2.0031078,6.7],[-2.1,6.7]],[[-1.995228,6.697778],[-1.9946443,6.697778],[-1.9946443,6.6966669],[-1.9943525,6.6966669],[-1.9943525,6.6962225],[-1.9940606,6.6962225],[-1.9940606,6.6960003],[-1.9943525,6.6960003],[-1.9943525,6.6955559],[-1.9946443,6.6955559],[-1.9946443,6.6960003],[-1.9955198,6.6960003],[-1.9955198,6.6957781],[-1.9961035,6.6957781],[-1.9961035,6.6964447],[-1.9955198,6.6964447],[-1.9955198,6.6966669],[-1.9958117,6.6966669],[-1.9958117,6.6968891],[-1.9955198,6.6968891],[-1.9955198,6.6973335],[-1.995228,6.6973335],[-1.995228,6.697778]],[[-2.05885,6.6957781],[-2.0585581,6.6957781],[-2.0585581,6.6955559],[-2.05885,6.6955559],[-2.05885,6.6957781]],[[-1.9963954,6.6957781],[-1.9961035,6.6957781],[-1.9961035,6.6955559],[-1.9963954,6.6955559],[-1.9963954,6.6957781]],[[-1.9581638,6.6842237],[-1.9569964,6.6842237],[-1.9569964,6.6833349],[-1.9572883,6.6833349],[-1.9572883,6.6828905],[-1.9569964,6.6828905],[-1.9569964,6.6826683],[-1.9584556,6.6826683],[-1.9584556,6.6828905],[-1.9581638,6.6828905],[-1.9581638,6.6842237]],[[-1.9888074,6.6822239],[-1.9882237,6.6822239],[-1.9882237,6.6817795],[-1.9885156,6.6817795],[-1.9885156,6.6820017],[-1.9888074,6.6820017],[-1.9888074,6.6822239]],[[-1.9893911,6.6813351],[-1.9890993,6.6813351],[-1.9890993,6.6808907],[-1.9893911,6.6808907],[-1.9893911,6.6813351]],[[-1.9844298,6.6808907],[-1.9841379,6.6808907],[-1.9841379,6.6806685],[-1.9838461,6.6806685],[-1.9838461,6.6802242],[-1.9841379,6.6802242],[-1.9841379,6.6804464],[-1.9844298,6.6804464],[-1.9844298,6.6808907]],[[-1.9832624,6.6806685],[-1.9829705,6.6806685],[-1.9829705,6.6804464],[-1.9823869,6.6804464],[-1.9823869,6.6802242],[-1.982095,6.6802242],[-1.982095,6.6797798],[-1.9818032,6.6797798],[-1.9818032,6.6793354],[-1.9812195,6.6793354],[-1.9812195,6.678891],[-1.9815113,6.678891],[-1.9815113,6.6782244],[-1.9812195,6.6782244],[-1.9812195,6.6780022],[-1.9809276,6.6780022],[-1.9809276,6.67778],[-1.9806358,6.67778],[-1.9806358,6.6768912],[-1.9797603,6.6768912],[-1.9797603,6.676669],[-1.9791766,6.676669],[-1.9791766,6.6764468],[-1.9788847,6.6764468],[-1.9788847,6.6760024],[-1.9791766,6.6760024],[-1.9791766,6.6757803],[-1.9794684,6.6757803],[-1.9794684,6.6760024],[-1.9797603,6.6760024],[-1.9797603,6.6757803],[-1.9809276,6.6757803],[-1.9809276,6.6762246],[-1.982095,6.6762246],[-1.982095,6.676669],[-1.9823869,6.676669],[-1.9823869,6.6768912],[-1.982095,6.6768912],[-1.982095,6.6773356],[-1.9823869,6.6773356],[-1.9823869,6.6780022],[-1.982095,6.6780022],[-1.982095,6.6782244],[-1.9823869,6.6782244],[-1.9823869,6.6784466],[-1.9826787,6.6784466],[-1.9826787,6.6797798],[-1.9829705,6.6797798],[-1.9829705,6.6802242],[-1.9832624,6.6802242],[-1.9832624,6.6806685]],[[-1.9823869,6.6806685],[-1.982095,6.6806685],[-1.982095,6.6804464],[-1.9823869,6.6804464],[-1.9823869,6.6806685]],[[-1.9844298,6.6795576],[-1.9835542,6.6795576],[-1.9835542,6.6793354],[-1.9832624,6.6793354],[-1.9832624,6.6786688],[-1.9835542,6.6786688],[-1.9835542,6.678891],[-1.9841379,6.678891],[-1.9841379,6.6793354],[-1.9844298,6.6793354],[-1.9844298,6.6795576]],[[-2.004567,6.6773356],[-2.0042752,6.6773356],[-2.0042752,6.676669],[-2.004567,6.676669],[-2.004567,6.6773356]],[[-2.0039833,6.6773356],[-2.0036915,6.6773356],[-2.0036915,6.676669],[-2.0031078,6.676669],[-2.0031078,6.6764468],[-2.0028159,6.6764468],[-2.0028159,6.6757803],[-2.0022323,6.6757803],[-2.0022323,6.6746693],[-2.0028159,6.6746693],[-2.0028159,6.6742249],[-2.0031078,6.6742249],[-2.0031078,6.6753359],[-2.0039833,6.6753359],[-2.0039833,6.6755581],[-2.004567,6.6755581],[-2.004567,6.6757803],[-2.0048588,6.6757803],[-2.0048588,6.6760024],[-2.004567,6.6760024],[-2.004567,6.6762246],[-2.0048588,6.6762246],[-2.0048588,6.6764468],[-2.0042752,6.6764468],[-2.0042752,6.676669],[-2.0039833,6.676669],[-2.0039833,6.6773356]],[[-1.9791766,6.6757803],[-1.9788847,6.6757803],[-1.9788847,6.6753359],[-1.9791766,6.6753359],[-1.9791766,6.6757803]],[[-1.9996057,6.6682257],[-1.9993138,6.6682257],[-1.9993138,6.6680035],[-1.9996057,6.6680035],[-1.9996057,6.6682257]],[[-2.0938713,6.6677813],[-2.0935794,6.6677813],[-2.0935794,6.6673369],[-2.0921202,6.6673369],[-2.0921202,6.6666704],[-2.0918284,6.6666704],[-2.0918284,6.6664482],[-2.0915365,6.6664482],[-2.0915365,6.666226],[-2.0918284,6.666226],[-2.0918284,6.6660038],[-2.0921202,6.6660038],[-2.0921202,6.6655594],[-2.0935794,6.6655594],[-2.0935794,6.6657816],[-2.0938713,6.6657816],[-2.0938713,6.6660038],[-2.0935794,6.6660038],[-2.0935794,6.666226],[-2.0938713,6.666226],[-2.0938713,6.6677813]],[[-2.0521376,6.6635597],[-2.0515539,6.6635597],[-2.0515539,6.6628932],[-2.051262,6.6628932],[-2.051262,6.662671],[-2.0503865,6.662671],[-2.0503865,6.6620044],[-2.049511,6.6620044],[-2.049511,6.6617822],[-2.0492191,6.6617822],[-2.0492191,6.6608935],[-2.0498028,6.6608935],[-2.0498028,6.6613378],[-2.0503865,6.6613378],[-2.0503865,6.66156],[-2.0509702,6.66156],[-2.0509702,6.6620044],[-2.0518457,6.6620044],[-2.0518457,6.6622266],[-2.0521376,6.6622266],[-2.0521376,6.6635597]],[[-2.0614766,6.6588938],[-2.0608929,6.6588938],[-2.0608929,6.6586716],[-2.0606011,6.6586716],[-2.0606011,6.658005],[-2.0611847,6.658005],[-2.0611847,6.6582272],[-2.0614766,6.6582272],[-2.0614766,6.6584494],[-2.0611847,6.6584494],[-2.0611847,6.6586716],[-2.0614766,6.6586716],[-2.0614766,6.6588938]],[[-1.9902666,6.6542279],[-1.989683,6.6542279],[-1.989683,6.6540057],[-1.9902666,6.6540057],[-1.9902666,6.6542279]],[[-1.9733397,6.6542279],[-1.9730478,6.6542279],[-1.9730478,6.6540057],[-1.9733397,6.6540057],[-1.9733397,6.6542279]],[[-1.9771337,6.6535613],[-1.9768418,6.6535613],[-1.9768418,6.6533391],[-1.9771337,6.6533391],[-1.9771337,6.6535613]],[[-1.9590393,6.6522282],[-1.9587475,6.6522282],[-1.9587475,6.652006],[-1.9590393,6.652006],[-1.9590393,6.6522282]],[[-1.9587475,6.652006],[-1.9584556,6.652006],[-1.9584556,6.6517839],[-1.957872,6.6517839],[-1.957872,6.652006],[-1.9572883,6.652006],[-1.9572883,6.6513395],[-1.9569964,6.6513395],[-1.9569964,6.6506729],[-1.9567046,6.6506729],[-1.9567046,6.6504508],[-1.9564127,6.6504508],[-1.9564127,6.649562],[-1.9569964,6.649562],[-1.9569964,6.6493398],[-1.9572883,6.6493398],[-1.9572883,6.6486733],[-1.957872,6.6486733],[-1.957872,6.6493398],[-1.9581638,6.6493398],[-1.9581638,6.649562],[-1.9584556,6.649562],[-1.9584556,6.6502286],[-1.9590393,6.6502286],[-1.9590393,6.6504508],[-1.9593312,6.6504508],[-1.9593312,6.6506729],[-1.9581638,6.6506729],[-1.9581638,6.6508951],[-1.9587475,6.6508951],[-1.9587475,6.6513395],[-1.9590393,6.6513395],[-1.9590393,6.6515617],[-1.9587475,6.6515617],[-1.9587475,6.652006]],[[-1.9928932,6.6460071],[-1.9920177,6.6460071],[-1.9920177,6.6457849],[-1.9911422,6.6457849],[-1.9911422,6.6455628],[-1.9905585,6.6455628],[-1.9905585,6.6453406],[-1.9902666,6.6453406],[-1.9902666,6.6444519],[-1.9911422,6.6444519],[-1.9911422,6.6442297],[-1.9917259,6.6442297],[-1.9917259,6.6444519],[-1.9923096,6.6444519],[-1.9923096,6.6455628],[-1.9928932,6.6455628],[-1.9928932,6.6460071]],[[-1.9920177,6.6442297],[-1.9917259,6.6442297],[-1.9917259,6.6437853],[-1.9920177,6.6437853],[-1.9920177,6.6442297]],[[-1.9911422,6.6437853],[-1.9908503,6.6437853],[-1.9908503,6.6435631],[-1.9911422,6.6435631],[-1.9911422,6.6437853]],[[-1.9905585,6.643341],[-1.9902666,6.643341],[-1.9902666,6.6426744],[-1.9905585,6.6426744],[-1.9905585,6.643341]],[[-2.086867,6.6382308],[-2.0865752,6.6382308],[-2.0865752,6.6377865],[-2.086867,6.6377865],[-2.086867,6.6373421],[-2.0871589,6.6373421],[-2.0871589,6.6368978],[-2.0877426,6.6368978],[-2.0877426,6.6373421],[-2.0880344,6.6373421],[-2.0880344,6.6377865],[-2.0871589,6.6377865],[-2.0871589,6.6380087],[-2.086867,6.6380087],[-2.086867,6.6382308]],[[-2.0197429,6.6322321],[-2.019451,6.6322321],[-2.019451,6.6320099],[-2.0197429,6.6320099],[-2.0197429,6.6322321]],[[-2.019451,6.6320099],[-2.0191592,6.6320099],[-2.0191592,6.6317877],[-2.019451,6.6317877],[-2.019451,6.6320099]],[[-2.0179918,6.6317877],[-2.0177,6.6317877],[-2.0177,6.6315656],[-2.0179918,6.6315656],[-2.0179918,6.6317877]],[[-2.0217858,6.6306769],[-2.0212021,6.6306769],[-2.0212021,6.6302325],[-2.0220776,6.6302325],[-2.0220776,6.6304547],[-2.0217858,6.6304547],[-2.0217858,6.6306769]],[[-2.0212021,6.6297882],[-2.0209103,6.6297882],[-2.0209103,6.629566],[-2.0212021,6.629566],[-2.0212021,6.6297882]],[[-1.97655,6.6288995],[-1.9762581,6.6288995],[-1.9762581,6.6286773],[-1.97655,6.6286773],[-1.97655,6.6288995]],[[-1.9640007,6.6277886],[-1.9637088,6.6277886],[-1.9637088,6.6273443],[-1.963417,6.6273443],[-1.963417,6.6277886],[-1.9631252,6.6277886],[-1.9631252,6.6268999],[-1.9622496,6.6268999],[-1.9622496,6.6266777],[-1.9628333,6.6266777],[-1.9628333,6.6264556],[-1.9631252,6.6264556],[-1.9631252,6.6260112],[-1.9628333,6.6260112],[-1.9628333,6.625789],[-1.9631252,6.625789],[-1.9631252,6.624456],[-1.9640007,6.624456],[-1.9640007,6.625789],[-1.9648762,6.625789],[-1.9648762,6.6260112],[-1.9651681,6.6260112],[-1.9651681,6.6262334],[-1.9654599,6.6262334],[-1.9654599,6.6266777],[-1.9651681,6.6266777],[-1.9651681,6.6268999],[-1.9648762,6.6268999],[-1.9648762,6.6273443],[-1.9640007,6.6273443],[-1.9640007,6.6277886]],[[-2.0384209,6.625789],[-2.0381291,6.625789],[-2.0381291,6.6253447],[-2.0384209,6.6253447],[-2.0384209,6.625789]],[[-2.0209103,6.625789],[-2.0206184,6.625789],[-2.0206184,6.6255669],[-2.0197429,6.6255669],[-2.0197429,6.6253447],[-2.019451,6.6253447],[-2.019451,6.624456],[-2.0203266,6.624456],[-2.0203266,6.6246782],[-2.0209103,6.6246782],[-2.0209103,6.625789]],[[-2.036378,6.6255669],[-2.0360862,6.6255669],[-2.0360862,6.6246782],[-2.036378,6.6246782],[-2.036378,6.6255669]],[[-2.0381291,6.6246782],[-2.036378,6.6246782],[-2.036378,6.624456],[-2.0360862,6.624456],[-2.0360862,6.6242338],[-2.036378,6.6242338],[-2.036378,6.6235673],[-2.0360862,6.6235673],[-2.0360862,6.6233452],[-2.036378,6.6233452],[-2.036378,6.6226786],[-2.0366698,6.6226786],[-2.0366698,6.6222343],[-2.0369617,6.6222343],[-2.0369617,6.6220121],[-2.0378372,6.6220121],[-2.0378372,6.62179],[-2.0384209,6.62179],[-2.0384209,6.6215678],[-2.0387128,6.6215678],[-2.0387128,6.6222343],[-2.0390046,6.6222343],[-2.0390046,6.6226786],[-2.0392964,6.6226786],[-2.0392964,6.6220121],[-2.0395883,6.6220121],[-2.0395883,6.6222343],[-2.0398801,6.6222343],[-2.0398801,6.6226786],[-2.0407557,6.6226786],[-2.0407557,6.6229008],[-2.0410475,6.6229008],[-2.0410475,6.6235673],[-2.040172,6.6235673],[-2.040172,6.6233452],[-2.0398801,6.6233452],[-2.0398801,6.6242338],[-2.0395883,6.6242338],[-2.0395883,6.624456],[-2.0392964,6.624456],[-2.0392964,6.6242338],[-2.0387128,6.6242338],[-2.0387128,6.6240117],[-2.0381291,6.6240117],[-2.0381291,6.6246782]],[[-2.0413394,6.624456],[-2.0407557,6.624456],[-2.0407557,6.6242338],[-2.0404638,6.6242338],[-2.0404638,6.6240117],[-2.0407557,6.6240117],[-2.0407557,6.6237895],[-2.0410475,6.6237895],[-2.0410475,6.6240117],[-2.0413394,6.6240117],[-2.0413394,6.624456]],[[-2.041923,6.6237895],[-2.0416312,6.6237895],[-2.0416312,6.6233452],[-2.041923,6.6233452],[-2.041923,6.6237895]],[[-1.9876401,6.6233452],[-1.9873482,6.6233452],[-1.9873482,6.6222343],[-1.9870564,6.6222343],[-1.9870564,6.62179],[-1.9873482,6.62179],[-1.9873482,6.6220121],[-1.9876401,6.6220121],[-1.9876401,6.6233452]],[[-1.9844298,6.6233452],[-1.9841379,6.6233452],[-1.9841379,6.6229008],[-1.9844298,6.6229008],[-1.9844298,6.6233452]],[[-1.9867645,6.6220121],[-1.9861808,6.6220121],[-1.9861808,6.62179],[-1.9867645,6.62179],[-1.9867645,6.6220121]],[[-2.0273308,6.62179],[-2.027039,6.62179],[-2.027039,6.6215678],[-2.0273308,6.6215678],[-2.0273308,6.62179]],[[-2.0384209,6.6215678],[-2.0381291,6.6215678],[-2.0381291,6.6213456],[-2.0384209,6.6213456],[-2.0384209,6.6215678]],[[-1.9867645,6.6215678],[-1.9864727,6.6215678],[-1.9864727,6.6209013],[-1.9867645,6.6209013],[-1.9867645,6.6215678]],[[-1.9861808,6.6213456],[-1.985889,6.6213456],[-1.985889,6.6209013],[-1.9861808,6.6209013],[-1.9861808,6.6213456]],[[-1.9838461,6.6213456],[-1.9835542,6.6213456],[-1.9835542,6.6206791],[-1.9838461,6.6206791],[-1.9838461,6.6213456]],[[-1.9870564,6.6209013],[-1.9867645,6.6209013],[-1.9867645,6.6206791],[-1.9870564,6.6206791],[-1.9870564,6.6209013]],[[-2.0381291,6.6206791],[-2.0369617,6.6206791],[-2.0369617,6.6204569],[-2.0381291,6.6204569],[-2.0381291,6.6206791]],[[-1.9876401,6.6206791],[-1.9870564,6.6206791],[-1.9870564,6.6202348],[-1.9873482,6.6202348],[-1.9873482,6.6204569],[-1.9876401,6.6204569],[-1.9876401,6.6206791]],[[-1.985889,6.6206791],[-1.9855971,6.6206791],[-1.9855971,6.6204569],[-1.9853053,6.6204569],[-1.9853053,6.6197904],[-1.9847216,6.6197904],[-1.9847216,6.6195683],[-1.9844298,6.6195683],[-1.9844298,6.6197904],[-1.9841379,6.6197904],[-1.9841379,6.6193461],[-1.9853053,6.6193461],[-1.9853053,6.6195683],[-1.985889,6.6195683],[-1.985889,6.6206791]],[[-2.0369617,6.6202348],[-2.0366698,6.6202348],[-2.0366698,6.6197904],[-2.0369617,6.6197904],[-2.0369617,6.6202348]],[[-1.9876401,6.6202348],[-1.9873482,6.6202348],[-1.9873482,6.6197904],[-1.9876401,6.6197904],[-1.9876401,6.6202348]],[[-1.9829705,6.6193461],[-1.9823869,6.6193461],[-1.9823869,6.6189018],[-1.9826787,6.6189018],[-1.9826787,6.6186796],[-1.9832624,6.6186796],[-1.9832624,6.6189018],[-1.9829705,6.6189018],[-1.9829705,6.6193461]],[[-1.9543698,6.6193461],[-1.954078,6.6193461],[-1.954078,6.6189018],[-1.9543698,6.6189018],[-1.9543698,6.6193461]],[[-1.9835542,6.6182353],[-1.9832624,6.6182353],[-1.9832624,6.6180131],[-1.9829705,6.6180131],[-1.9829705,6.6177909],[-1.982095,6.6177909],[-1.982095,6.6173466],[-1.9815113,6.6173466],[-1.9815113,6.6169022],[-1.9812195,6.6169022],[-1.9812195,6.6166801],[-1.9815113,6.6166801],[-1.9815113,6.6164579],[-1.9812195,6.6164579],[-1.9812195,6.6162357],[-1.982095,6.6162357],[-1.982095,6.6160136],[-1.9829705,6.6160136],[-1.9829705,6.6162357],[-1.9832624,6.6162357],[-1.9832624,6.6164579],[-1.9835542,6.6164579],[-1.9835542,6.6169022],[-1.9838461,6.6169022],[-1.9838461,6.6173466],[-1.9835542,6.6173466],[-1.9835542,6.6182353]],[[-1.9756744,6.6180131],[-1.9753826,6.6180131],[-1.9753826,6.6177909],[-1.9747989,6.6177909],[-1.9747989,6.6173466],[-1.9753826,6.6173466],[-1.9753826,6.6166801],[-1.9759663,6.6166801],[-1.9759663,6.6169022],[-1.9762581,6.6169022],[-1.9762581,6.6177909],[-1.9756744,6.6177909],[-1.9756744,6.6180131]],[[-1.995228,6.6142362],[-1.9946443,6.6142362],[-1.9946443,6.6140141],[-1.9943525,6.6140141],[-1.9943525,6.6133476],[-1.9946443,6.6133476],[-1.9946443,6.6129032],[-1.9955198,6.6129032],[-1.9955198,6.6133476],[-1.9958117,6.6133476],[-1.9958117,6.6137919],[-1.9961035,6.6137919],[-1.9961035,6.6140141],[-1.9955198,6.6140141],[-1.9955198,6.6137919],[-1.995228,6.6137919],[-1.995228,6.6142362]],[[-1.9963954,6.6135697],[-1.9961035,6.6135697],[-1.9961035,6.6129032],[-1.9963954,6.6129032],[-1.9963954,6.6135697]],[[-1.9981464,6.6122367],[-1.9978546,6.6122367],[-1.9978546,6.6120146],[-1.9981464,6.6120146],[-1.9981464,6.6122367]],[[-2.0416312,6.6113481],[-2.0413394,6.6113481],[-2.0413394,6.6109037],[-2.0416312,6.6109037],[-2.0416312,6.6113481]],[[-2.0384209,6.6106816],[-2.0381291,6.6106816],[-2.0381291,6.6104594],[-2.0384209,6.6104594],[-2.0384209,6.6106816]],[[-2.0658542,6.6084599],[-2.0655624,6.6084599],[-2.0655624,6.6080156],[-2.0658542,6.6080156],[-2.0658542,6.6084599]],[[-1.9966872,6.6084599],[-1.9963954,6.6084599],[-1.9963954,6.6082378],[-1.9966872,6.6082378],[-1.9966872,6.6084599]],[[-2.0821975,6.6082378],[-2.0816138,6.6082378],[-2.0816138,6.6080156],[-2.0819057,6.6080156],[-2.0819057,6.6077934],[-2.0821975,6.6077934],[-2.0821975,6.6073491],[-2.0819057,6.6073491],[-2.0819057,6.6069048],[-2.0827812,6.6069048],[-2.0827812,6.6073491],[-2.0833649,6.6073491],[-2.0833649,6.6080156],[-2.0821975,6.6080156],[-2.0821975,6.6082378]],[[-2.0661461,6.6080156],[-2.0658542,6.6080156],[-2.0658542,6.6069048],[-2.0652706,6.6069048],[-2.0652706,6.6066826],[-2.0655624,6.6066826],[-2.0655624,6.6064604],[-2.0658542,6.6064604],[-2.0658542,6.6062383],[-2.0655624,6.6062383],[-2.0655624,6.6057939],[-2.0658542,6.6057939],[-2.0658542,6.6053496],[-2.0655624,6.6053496],[-2.0655624,6.6046831],[-2.0652706,6.6046831],[-2.0652706,6.6042388],[-2.0655624,6.6042388],[-2.0655624,6.604461],[-2.0658542,6.604461],[-2.0658542,6.6046831],[-2.0661461,6.6046831],[-2.0661461,6.6055718],[-2.0664379,6.6055718],[-2.0664379,6.6040166],[-2.0658542,6.6040166],[-2.0658542,6.6037945],[-2.0664379,6.6037945],[-2.0664379,6.6035723],[-2.0667298,6.6035723],[-2.0667298,6.6037945],[-2.0670216,6.6037945],[-2.0670216,6.6035723],[-2.0673135,6.6035723],[-2.0673135,6.6037945],[-2.0676053,6.6037945],[-2.0676053,6.6040166],[-2.0673135,6.6040166],[-2.0673135,6.6042388],[-2.0676053,6.6042388],[-2.0676053,6.6046831],[-2.0673135,6.6046831],[-2.0673135,6.6055718],[-2.0687727,6.6055718],[-2.0687727,6.6057939],[-2.0684808,6.6057939],[-2.0684808,6.6060161],[-2.068189,6.6060161],[-2.068189,6.6066826],[-2.0678972,6.6066826],[-2.0678972,6.6069048],[-2.068189,6.6069048],[-2.068189,6.6073491],[-2.0664379,6.6073491],[-2.0664379,6.6069048],[-2.0661461,6.6069048],[-2.0661461,6.6080156]],[[-2.0763606,6.6077934],[-2.0760688,6.6077934],[-2.0760688,6.6073491],[-2.0757769,6.6073491],[-2.0757769,6.6066826],[-2.0763606,6.6066826],[-2.0763606,6.6077934]],[[-2.0819057,6.6069048],[-2.0816138,6.6069048],[-2.0816138,6.6066826],[-2.0819057,6.6066826],[-2.0819057,6.6069048]],[[-2.0956223,6.6066826],[-2.0953305,6.6066826],[-2.0953305,6.6064604],[-2.0956223,6.6064604],[-2.0956223,6.6066826]],[[-2.0573908,6.6055718],[-2.0565152,6.6055718],[-2.0565152,6.6046831],[-2.0568071,6.6046831],[-2.0568071,6.604461],[-2.0570989,6.604461],[-2.0570989,6.6046831],[-2.0573908,6.6046831],[-2.0573908,6.6055718]],[[-2.0652706,6.6042388],[-2.0646869,6.6042388],[-2.0646869,6.6040166],[-2.064395,6.6040166],[-2.064395,6.6037945],[-2.0655624,6.6037945],[-2.0655624,6.6040166],[-2.0652706,6.6040166],[-2.0652706,6.6042388]],[[-2.013906,6.6040166],[-2.0136142,6.6040166],[-2.0136142,6.6037945],[-2.0130305,6.6037945],[-2.0130305,6.6035723],[-2.0127386,6.6035723],[-2.0127386,6.6029058],[-2.0130305,6.6029058],[-2.0130305,6.6026837],[-2.0136142,6.6026837],[-2.0136142,6.6029058],[-2.0141979,6.6029058],[-2.0141979,6.6033502],[-2.013906,6.6033502],[-2.013906,6.6040166]],[[-2.064395,6.6037945],[-2.0641032,6.6037945],[-2.0641032,6.6033502],[-2.064395,6.6033502],[-2.064395,6.6037945]],[[-2.0387128,6.6037945],[-2.0381291,6.6037945],[-2.0381291,6.6035723],[-2.0378372,6.6035723],[-2.0378372,6.6033502],[-2.036378,6.6033502],[-2.036378,6.6029058],[-2.0360862,6.6029058],[-2.0360862,6.6026837],[-2.0372535,6.6026837],[-2.0372535,6.6020172],[-2.0369617,6.6020172],[-2.0369617,6.601795],[-2.0366698,6.601795],[-2.0366698,6.6009064],[-2.0372535,6.6009064],[-2.0372535,6.6013507],[-2.0381291,6.6013507],[-2.0381291,6.6015729],[-2.0387128,6.6015729],[-2.0387128,6.6013507],[-2.0390046,6.6013507],[-2.0390046,6.6009064],[-2.0381291,6.6009064],[-2.0381291,6.6004621],[-2.0384209,6.6004621],[-2.0384209,6.6006842],[-2.0390046,6.6006842],[-2.0390046,6.6004621],[-2.0392964,6.6004621],[-2.0392964,6.6002399],[-2.0395883,6.6002399],[-2.0395883,6.6009064],[-2.0398801,6.6009064],[-2.0398801,6.6006842],[-2.0404638,6.6006842],[-2.0404638,6.6013507],[-2.0407557,6.6013507],[-2.0407557,6.6015729],[-2.0410475,6.6015729],[-2.0410475,6.601795],[-2.0407557,6.601795],[-2.0407557,6.6020172],[-2.0395883,6.6020172],[-2.0395883,6.6022393],[-2.040172,6.6022393],[-2.040172,6.6029058],[-2.0398801,6.6029058],[-2.0398801,6.6033502],[-2.0390046,6.6033502],[-2.0390046,6.6035723],[-2.0387128,6.6035723],[-2.0387128,6.6037945]],[[-2.0147815,6.6015729],[-2.0136142,6.6015729],[-2.0136142,6.6013507],[-2.0127386,6.6013507],[-2.0127386,6.6009064],[-2.0130305,6.6009064],[-2.0130305,6.6004621],[-2.0141979,6.6004621],[-2.0141979,6.6013507],[-2.0144897,6.6013507],[-2.0144897,6.6009064],[-2.0153652,6.6009064],[-2.0153652,6.6013507],[-2.0147815,6.6013507],[-2.0147815,6.6015729]],[[-2.0410475,6.6013507],[-2.0407557,6.6013507],[-2.0407557,6.6009064],[-2.0410475,6.6009064],[-2.0410475,6.6013507]],[[-1.9631252,6.6006842],[-1.9622496,6.6006842],[-1.9622496,6.6002399],[-1.9631252,6.6002399],[-1.9631252,6.6006842]],[[-1.9616659,6.6006842],[-1.9607904,6.6006842],[-1.9607904,6.6004621],[-1.9602067,6.6004621],[-1.9602067,6.6002399],[-1.959623,6.6002399],[-1.959623,6.5995734],[-1.9602067,6.5995734],[-1.9602067,6.5989069],[-1.959623,6.5989069],[-1.959623,6.5980183],[-1.9607904,6.5980183],[-1.9607904,6.5989069],[-1.9604986,6.5989069],[-1.9604986,6.5995734],[-1.9607904,6.5995734],[-1.9607904,6.5993513],[-1.9610822,6.5993513],[-1.9610822,6.5995734],[-1.9613741,6.5995734],[-1.9613741,6.5993513],[-1.9619578,6.5993513],[-1.9619578,6.5989069],[-1.9622496,6.5989069],[-1.9622496,6.5993513],[-1.9628333,6.5993513],[-1.9628333,6.5995734],[-1.9631252,6.5995734],[-1.9631252,6.5997956],[-1.9622496,6.5997956],[-1.9622496,6.6002399],[-1.9616659,6.6002399],[-1.9616659,6.6006842]],[[-2.0337514,6.5997956],[-2.0334596,6.5997956],[-2.0334596,6.5995734],[-2.0337514,6.5995734],[-2.0337514,6.5997956]],[[-1.9587475,6.5995734],[-1.9584556,6.5995734],[-1.9584556,6.5993513],[-1.9587475,6.5993513],[-1.9587475,6.5995734]],[[-2.0284982,6.5806901],[-2.0282064,6.5806901],[-2.0282064,6.580468],[-2.0284982,6.580468],[-2.0284982,6.5806901]],[[-2.0544723,6.5764692],[-2.0538886,6.5764692],[-2.0538886,6.5762471],[-2.0544723,6.5762471],[-2.0544723,6.5764692]],[[-2.045717,6.5764692],[-2.0454252,6.5764692],[-2.0454252,6.5762471],[-2.045717,6.5762471],[-2.045717,6.5764692]],[[-2.0340433,6.5662504],[-2.0337514,6.5662504],[-2.0337514,6.5660283],[-2.0334596,6.5660283],[-2.0334596,6.565584],[-2.0337514,6.565584],[-2.0337514,6.5658061],[-2.0340433,6.5658061],[-2.0340433,6.5662504]],[[-2.0337514,6.5651397],[-2.0331677,6.5651397],[-2.0331677,6.5646954],[-2.0328759,6.5646954],[-2.0328759,6.5651397],[-2.0317085,6.5651397],[-2.0317085,6.5646954],[-2.0314167,6.5646954],[-2.0314167,6.5644732],[-2.0311248,6.5644732],[-2.0311248,6.5640289],[-2.0317085,6.5640289],[-2.0317085,6.5638068],[-2.0314167,6.5638068],[-2.0314167,6.5635847],[-2.0311248,6.5635847],[-2.0311248,6.5626961],[-2.0320003,6.5626961],[-2.0320003,6.5629182],[-2.0322922,6.5629182],[-2.0322922,6.5626961],[-2.0328759,6.5626961],[-2.0328759,6.5615854],[-2.0331677,6.5615854],[-2.0331677,6.5618075],[-2.0334596,6.5618075],[-2.0334596,6.5620296],[-2.0337514,6.5620296],[-2.0337514,6.5626961],[-2.0340433,6.5626961],[-2.0340433,6.5638068],[-2.0346269,6.5638068],[-2.0346269,6.5642511],[-2.0343351,6.5642511],[-2.0343351,6.5644732],[-2.0340433,6.5644732],[-2.0340433,6.5646954],[-2.0337514,6.5646954],[-2.0337514,6.5651397]],[[-2.0331677,6.5560318],[-2.0328759,6.5560318],[-2.0328759,6.5558096],[-2.0331677,6.5558096],[-2.0331677,6.5560318]],[[-2.0693564,6.5526997],[-2.0684808,6.5526997],[-2.0684808,6.5522554],[-2.068189,6.5522554],[-2.068189,6.551589],[-2.0693564,6.551589],[-2.0693564,6.5518111],[-2.0696482,6.5518111],[-2.0696482,6.5520332],[-2.0690645,6.5520332],[-2.0690645,6.5522554],[-2.0693564,6.5522554],[-2.0693564,6.5526997]]],"type":"Polygon"},"properties":{},"type":"Feature"}],"type":"FeatureCollection"}
